{"type": "FeatureCollection", "features": [ {"type": "Feature", "properties": {"norad_id": 66757, "name": "TRANSPORTER-15CV", "group": "last-30-days", "lat": -30.082135888792966, "lon": -113.6020996440004, "alt_km": 516.9063874663234, "timestamp": "2025-12-25T03:55:54.953430+00:00", "meta": {"OBJECT_NAME": "TRANSPORTER-15CV", "OBJECT_ID": "2025-276CV", "EPOCH": "2025-12-24T19:05:56.516928", "MEAN_MOTION": 15.18096587, "ECCENTRICITY": 0.0001861, "INCLINATION": 97.442, "RA_OF_ASC_NODE": 70.3784, "ARG_OF_PERICENTER": 154.5551, "MEAN_ANOMALY": 205.5774, "EPHEMERIS_TYPE": 0, "CLASSIFICATION_TYPE": "U", "NORAD_CAT_ID": 66757, "ELEMENT_SET_NO": 999, "REV_AT_EPOCH": 395, "BSTAR": 0.00050556, "MEAN_MOTION_DOT": 0.00010248, "MEAN_MOTION_DDOT": 0}, "tle": {"line1": "1 66757U 25276CV  25358.79579302  .00010248  00000+0  50556-3 0  9996", "line2": "2 66757  97.4420  70.3784 0001861 154.5551 205.5774 15.18096587  3957"}}, "geometry": {"type": "Point", "coordinates": [-113.6020996440004, -30.082135888792966]}}, {"type": "Feature", "properties": {"norad_id": 66758, "name": "TRANSPORTER-15CW", "group": "last-30-days", "lat": -31.586478899194745, "lon": -113.87774207985505, "alt_km": 517.490630993494, "timestamp": "2025-12-25T03:55:54.953443+00:00", "meta": {"OBJECT_NAME": "TRANSPORTER-15CW", "OBJECT_ID": "2025-276CW", "EPOCH": "2025-12-24T19:05:32.413056", "MEAN_MOTION": 15.18095738, "ECCENTRICITY": 0.0001508, "INCLINATION": 97.439, "RA_OF_ASC_NODE": 70.3683, "ARG_OF_PERICENTER": 135.2744, "MEAN_ANOMALY": 224.8612, "EPHEMERIS_TYPE": 0, "CLASSIFICATION_TYPE": "U", "NORAD_CAT_ID": 66758, "ELEMENT_SET_NO": 999, "REV_AT_EPOCH": 395, "BSTAR": 0.00035152, "MEAN_MOTION_DOT": 7.102e-05, "MEAN_MOTION_DDOT": 0}, "tle": {"line1": "1 66758U 25276CW  25358.79551404  .00007102  00000+0  35152-3 0  9990", "line2": "2 66758  97.4390  70.3683 0001508 135.2744 224.8612 15.18095738  3952"}}, "geometry": {"type": "Point", "coordinates": [-113.87774207985505, -31.586478899194745]}}, {"type": "Feature", "properties": {"norad_id": 66759, "name": "TRANSPORTER-15CX", "group": "last-30-days", "lat": -40.80466785694361, "lon": -115.74462360987741, "alt_km": 519.8194662153446, "timestamp": "2025-12-25T03:55:54.953453+00:00", "meta": {"OBJECT_NAME": "TRANSPORTER-15CX", "OBJECT_ID": "2025-276CX", "EPOCH": "2025-12-24T20:37:55.475904", "MEAN_MOTION": 15.17895169, "ECCENTRICITY": 0.0003666, "INCLINATION": 97.4379, "RA_OF_ASC_NODE": 70.4324, "ARG_OF_PERICENTER": 119.3094, "MEAN_ANOMALY": 240.8506, "EPHEMERIS_TYPE": 0, "CLASSIFICATION_TYPE": "U", "NORAD_CAT_ID": 66759, "ELEMENT_SET_NO": 999, "REV_AT_EPOCH": 396, "BSTAR": -0.011463, "MEAN_MOTION_DOT": -0.00225304, "MEAN_MOTION_DDOT": 0}, "tle": {"line1": "1 66759U 25276CX  25358.85966986 -.00225304  00000+0 -11463-1 0  9998", "line2": "2 66759  97.4379  70.4324 0003666 119.3094 240.8506 15.17895169  3967"}}, "geometry": {"type": "Point", "coordinates": [-115.74462360987741, -40.80466785694361]}}, {"type": "Feature", "properties": {"norad_id": 66760, "name": "TRANSPORTER-15CY", "group": "last-30-days", "lat": -43.403010749849436, "lon": -116.36160469161945, "alt_km": 518.4185317129186, "timestamp": "2025-12-25T03:55:54.953465+00:00", "meta": {"OBJECT_NAME": "TRANSPORTER-15CY", "OBJECT_ID": "2025-276CY", "EPOCH": "2025-12-24T19:02:25.216224", "MEAN_MOTION": 15.18210405, "ECCENTRICITY": 0.0001762, "INCLINATION": 97.4395, "RA_OF_ASC_NODE": 70.3729, "ARG_OF_PERICENTER": 112.6956, "MEAN_ANOMALY": 247.4464, "EPHEMERIS_TYPE": 0, "CLASSIFICATION_TYPE": "U", "NORAD_CAT_ID": 66760, "ELEMENT_SET_NO": 999, "REV_AT_EPOCH": 395, "BSTAR": 0.00033038, "MEAN_MOTION_DOT": 6.692e-05, "MEAN_MOTION_DDOT": 0}, "tle": {"line1": "1 66760U 25276CY  25358.79334741  .00006692  00000+0  33038-3 0  9990", "line2": "2 66760  97.4395  70.3729 0001762 112.6956 247.4464 15.18210405  3953"}}, "geometry": {"type": "Point", "coordinates": [-116.36160469161945, -43.403010749849436]}}, {"type": "Feature", "properties": {"norad_id": 66761, "name": "TRANSPORTER-15CZ", "group": "last-30-days", "lat": -59.232542596856305, "lon": -121.93478968468821, "alt_km": 518.0623638679854, "timestamp": "2025-12-25T03:55:54.953475+00:00", "meta": {"OBJECT_NAME": "TRANSPORTER-15CZ", "OBJECT_ID": "2025-276CZ", "EPOCH": "2025-12-24T18:58:15.038112", "MEAN_MOTION": 15.18514448, "ECCENTRICITY": 0.0001763, "INCLINATION": 97.4394, "RA_OF_ASC_NODE": 70.3764, "ARG_OF_PERICENTER": 121.9356, "MEAN_ANOMALY": 238.205, "EPHEMERIS_TYPE": 0, "CLASSIFICATION_TYPE": "U", "NORAD_CAT_ID": 66761, "ELEMENT_SET_NO": 999, "REV_AT_EPOCH": 395, "BSTAR": 0.00052308, "MEAN_MOTION_DOT": 0.00010734, "MEAN_MOTION_DDOT": 0}, "tle": {"line1": "1 66761U 25276CZ  25358.79045183  .00010734  00000+0  52308-3 0  9993", "line2": "2 66761  97.4394  70.3764 0001763 121.9356 238.2050 15.18514448  3953"}}, "geometry": {"type": "Point", "coordinates": [-121.93478968468821, -59.232542596856305]}}, {"type": "Feature", "properties": {"norad_id": 66762, "name": "HYDROGNSS-1", "group": "last-30-days", "lat": 35.610051647528074, "lon": -103.9229828946339, "alt_km": 511.68812710567454, "timestamp": "2025-12-25T03:55:54.953485+00:00", "meta": {"OBJECT_NAME": "HYDROGNSS-1", "OBJECT_ID": "2025-276DA", "EPOCH": "2025-12-24T19:23:08.915712", "MEAN_MOTION": 15.17319244, "ECCENTRICITY": 9.86e-05, "INCLINATION": 97.4405, "RA_OF_ASC_NODE": 70.3567, "ARG_OF_PERICENTER": 244.7382, "MEAN_ANOMALY": 115.375, "EPHEMERIS_TYPE": 0, "CLASSIFICATION_TYPE": "U", "NORAD_CAT_ID": 66762, "ELEMENT_SET_NO": 999, "REV_AT_EPOCH": 395, "BSTAR": 0.00045904, "MEAN_MOTION_DOT": 9.092e-05, "MEAN_MOTION_DDOT": 0}, "tle": {"line1": "1 66762U 25276DA  25358.80774208  .00009092  00000+0  45904-3 0  9992", "line2": "2 66762  97.4405  70.3567 0000986 244.7382 115.3750 15.17319244  3955"}}, "geometry": {"type": "Point", "coordinates": [-103.9229828946339, 35.610051647528074]}}, {"type": "Feature", "properties": {"norad_id": 66763, "name": "HYDROGNSS-2", "group": "last-30-days", "lat": 23.670802854806766, "lon": -105.99980528446784, "alt_km": 512.7678045924304, "timestamp": "2025-12-25T03:55:54.953495+00:00", "meta": {"OBJECT_NAME": "HYDROGNSS-2", "OBJECT_ID": "2025-276DB", "EPOCH": "2025-12-24T19:20:00.313152", "MEAN_MOTION": 15.17440251, "ECCENTRICITY": 0.0001579, "INCLINATION": 97.4409, "RA_OF_ASC_NODE": 70.3639, "ARG_OF_PERICENTER": 227.3073, "MEAN_ANOMALY": 132.8028, "EPHEMERIS_TYPE": 0, "CLASSIFICATION_TYPE": "U", "NORAD_CAT_ID": 66763, "ELEMENT_SET_NO": 999, "REV_AT_EPOCH": 395, "BSTAR": 0.00021085, "MEAN_MOTION_DOT": 4.152e-05, "MEAN_MOTION_DDOT": 0}, "tle": {"line1": "1 66763U 25276DB  25358.80555918  .00004152  00000+0  21085-3 0  9994", "line2": "2 66763  97.4409  70.3639 0001579 227.3073 132.8028 15.17440251  3958"}}, "geometry": {"type": "Point", "coordinates": [-105.99980528446784, 23.670802854806766]}}, {"type": "Feature", "properties": {"norad_id": 66764, "name": "TRANSPORTER-15DC", "group": "last-30-days", "lat": -2.22464412827324, "lon": -109.5699755648314, "alt_km": 514.622612489653, "timestamp": "2025-12-25T03:55:54.953505+00:00", "meta": {"OBJECT_NAME": "TRANSPORTER-15DC", "OBJECT_ID": "2025-276DC", "EPOCH": "2025-12-24T19:13:13.033056", "MEAN_MOTION": 15.17708244, "ECCENTRICITY": 0.0002178, "INCLINATION": 97.4403, "RA_OF_ASC_NODE": 70.3642, "ARG_OF_PERICENTER": 186.7978, "MEAN_ANOMALY": 173.3227, "EPHEMERIS_TYPE": 0, "CLASSIFICATION_TYPE": "U", "NORAD_CAT_ID": 66764, "ELEMENT_SET_NO": 999, "REV_AT_EPOCH": 395, "BSTAR": 0.00042662, "MEAN_MOTION_DOT": 8.539e-05, "MEAN_MOTION_DDOT": 0}, "tle": {"line1": "1 66764U 25276DC  25358.80084529  .00008539  00000+0  42662-3 0  9997", "line2": "2 66764  97.4403  70.3642 0002178 186.7978 173.3227 15.17708244  3955"}}, "geometry": {"type": "Point", "coordinates": [-109.5699755648314, -2.22464412827324]}}, {"type": "Feature", "properties": {"norad_id": 66765, "name": "TRANSPORTER-15DD", "group": "last-30-days", "lat": -77.91109815828075, "lon": -146.85009604282402, "alt_km": 518.0047034070112, "timestamp": "2025-12-25T03:55:54.953517+00:00", "meta": {"OBJECT_NAME": "TRANSPORTER-15DD", "OBJECT_ID": "2025-276DD", "EPOCH": "2025-12-24T17:18:05.087808", "MEAN_MOTION": 15.18775398, "ECCENTRICITY": 0.0002011, "INCLINATION": 97.4418, "RA_OF_ASC_NODE": 70.324, "ARG_OF_PERICENTER": 116.2556, "MEAN_ANOMALY": 243.8885, "EPHEMERIS_TYPE": 0, "CLASSIFICATION_TYPE": "U", "NORAD_CAT_ID": 66765, "ELEMENT_SET_NO": 999, "REV_AT_EPOCH": 394, "BSTAR": 0.00063207, "MEAN_MOTION_DOT": 0.00013087, "MEAN_MOTION_DDOT": 0}, "tle": {"line1": "1 66765U 25276DD  25358.72089222  .00013087  00000+0  63207-3 0  9996", "line2": "2 66765  97.4418  70.3240 0002011 116.2556 243.8885 15.18775398  3949"}}, "geometry": {"type": "Point", "coordinates": [-146.85009604282402, -77.91109815828075]}}, {"type": "Feature", "properties": {"norad_id": 66766, "name": "TRANSPORTER-15DE", "group": "last-30-days", "lat": -61.82995392050092, "lon": -123.38270247483221, "alt_km": 519.053277696059, "timestamp": "2025-12-25T03:55:54.953529+00:00", "meta": {"OBJECT_NAME": "TRANSPORTER-15DE", "OBJECT_ID": "2025-276DE", "EPOCH": "2025-12-24T17:22:36.909984", "MEAN_MOTION": 15.18433163, "ECCENTRICITY": 0.0002046, "INCLINATION": 97.4359, "RA_OF_ASC_NODE": 70.3008, "ARG_OF_PERICENTER": 87.8154, "MEAN_ANOMALY": 272.3314, "EPHEMERIS_TYPE": 0, "CLASSIFICATION_TYPE": "U", "NORAD_CAT_ID": 66766, "ELEMENT_SET_NO": 999, "REV_AT_EPOCH": 394, "BSTAR": 0.00035937, "MEAN_MOTION_DOT": 7.333e-05, "MEAN_MOTION_DDOT": 0}, "tle": {"line1": "1 66766U 25276DE  25358.72403831  .00007333  00000+0  35937-3 0  9999", "line2": "2 66766  97.4359  70.3008 0002046  87.8154 272.3314 15.18433163  3946"}}, "geometry": {"type": "Point", "coordinates": [-123.38270247483221, -61.82995392050092]}}]}